{
    "links": {
        "self": "http://www.neowsapp.com/rest/v1/neo/3285184?api_key=iIulBulltgU6a56xZRHN4H3l9WmuAYTsLGpBGhQ2"
    },
    "id": "3285184",
    "neo_reference_id": "3285184",
    "name": "(2005 OT2)",
    "designation": "2005 OT2",
    "nasa_jpl_url": "http://ssd.jpl.nasa.gov/sbdb.cgi?sstr=3285184",
    "absolute_magnitude_h": 21.9,
    "estimated_diameter": {
        "kilometers": {
            "estimated_diameter_min": 0.1108038821,
            "estimated_diameter_max": 0.2477650126
        },
        "meters": {
            "estimated_diameter_min": 110.8038821264,
            "estimated_diameter_max": 247.7650126055
        },
        "miles": {
            "estimated_diameter_min": 0.068850319,
            "estimated_diameter_max": 0.1539539936
        },
        "feet": {
            "estimated_diameter_min": 363.5298086356,
            "estimated_diameter_max": 812.8773639568
        }
    },
    "is_potentially_hazardous_asteroid": false,
    "close_approach_data": [
        {
            "close_approach_date": "2005-07-27",
            "close_approach_date_full": "2005-Jul-27 16:33",
            "epoch_date_close_approach": 1122481980000,
            "relative_velocity": {
                "kilometers_per_second": "16.5718591912",
                "kilometers_per_hour": "59658.6930881785",
                "miles_per_hour": "37069.5918247074"
            },
            "miss_distance": {
                "astronomical": "0.1088171361",
                "lunar": "42.3298659429",
                "kilometers": "16278811.780060107",
                "miles": "10115184.5927871966"
            },
            "orbiting_body": "Earth"
        }
    ],
    "orbital_data": {
        "orbit_id": "11",
        "orbit_determination_date": "2017-04-06 09:10:44",
        "first_observation_date": "2005-07-29",
        "last_observation_date": "2005-08-08",
        "data_arc_in_days": 10,
        "observations_used": 50,
        "orbit_uncertainty": "8",
        "minimum_orbit_intersection": ".108124",
        "jupiter_tisserand_invariant": "3.515",
        "epoch_osculation": "2453584.5",
        "eccentricity": ".4799948482245254",
        "semi_major_axis": "2.051675022615116",
        "inclination": "27.30549934424912",
        "ascending_node_longitude": "308.4211602925951",
        "orbital_period": "1073.399240977401",
        "perihelion_distance": "1.066881581528924",
        "perihelion_argument": "325.1096791260746",
        "aphelion_distance": "3.036468463701309",
        "perihelion_time": "2453550.816586331218",
        "mean_anomaly": "11.29684879385602",
        "mean_motion": ".3353831326284489",
        "equinox": "J2000",
        "orbit_class": {
            "orbit_class_type": "AMO",
            "orbit_class_description": "Near-Earth asteroid orbits similar to that of 1221 Amor",
            "orbit_class_range": "1.017 AU < q (perihelion) < 1.3 AU"
        }
    },
    "is_sentry_object": false
}